[{"OBJECT_NAME":"STARLINK-35489","OBJECT_ID":"2025-223D","EPOCH":"2025-12-06T12:06:38.002464","MEAN_MOTION":15.30213154,"ECCENTRICITY":0.00012174,"INCLINATION":53.1603,"RA_OF_ASC_NODE":7.3614,"ARG_OF_PERICENTER":85.0403,"MEAN_ANOMALY":275.0737,"EPHEMERIS_TYPE":0,"CLASSIFICATION_TYPE":"U","NORAD_CAT_ID":65857,"ELEMENT_SET_NO":999,"REV_AT_EPOCH":993,"BSTAR":0.0019720626,"MEAN_MOTION_DOT":0.00058533,"MEAN_MOTION_DDOT":0},{"OBJECT_NAME":"STARLINK-35199","OBJECT_ID":"2025-223E","EPOCH":"2025-12-06T16:00:03.000096","MEAN_MOTION":15.31384012,"ECCENTRICITY":0.00016871,"INCLINATION":53.1595,"RA_OF_ASC_NODE":6.1413,"ARG_OF_PERICENTER":57.7897,"MEAN_ANOMALY":353.2032,"EPHEMERIS_TYPE":0,"CLASSIFICATION_TYPE":"U","NORAD_CAT_ID":65858,"ELEMENT_SET_NO":999,"REV_AT_EPOCH":591,"BSTAR":-0.040037811,"MEAN_MOTION_DOT":-0.01123271,"MEAN_MOTION_DDOT":0},{"OBJECT_NAME":"STARLINK-35408","OBJECT_ID":"2025-223F","EPOCH":"2025-12-06T08:57:00.573120","MEAN_MOTION":15.30197976,"ECCENTRICITY":0.00021575,"INCLINATION":53.1595,"RA_OF_ASC_NODE":7.9615,"ARG_OF_PERICENTER":84.6189,"MEAN_ANOMALY":275.5058,"EPHEMERIS_TYPE":0,"CLASSIFICATION_TYPE":"U","NORAD_CAT_ID":65859,"ELEMENT_SET_NO":999,"REV_AT_EPOCH":991,"BSTAR":0.0019301593,"MEAN_MOTION_DOT":0.00057246,"MEAN_MOTION_DDOT":0},{"OBJECT_NAME":"STARLINK-35303","OBJECT_ID":"2025-223G","EPOCH":"2025-12-06T16:00:03.000096","MEAN_MOTION":15.30182334,"ECCENTRICITY":0.00013866,"INCLINATION":53.161,"RA_OF_ASC_NODE":6.3939,"ARG_OF_PERICENTER":86.6604,"MEAN_ANOMALY":197.3991,"EPHEMERIS_TYPE":0,"CLASSIFICATION_TYPE":"U","NORAD_CAT_ID":65860,"ELEMENT_SET_NO":999,"REV_AT_EPOCH":591,"BSTAR":0.00035583836,"MEAN_MOTION_DOT":0.00010188,"MEAN_MOTION_DDOT":0},{"OBJECT_NAME":"STARLINK-35258","OBJECT_ID":"2025-223H","EPOCH":"2025-12-06T13:17:53.376000","MEAN_MOTION":15.30226146,"ECCENTRICITY":0.00014832,"INCLINATION":53.1604,"RA_OF_ASC_NODE":6.9563,"ARG_OF_PERICENTER":97.3473,"MEAN_ANOMALY":262.7696,"EPHEMERIS_TYPE":0,"CLASSIFICATION_TYPE":"U","NORAD_CAT_ID":65861,"ELEMENT_SET_NO":999,"REV_AT_EPOCH":994,"BSTAR":0.0017602677,"MEAN_MOTION_DOT":0.00052184,"MEAN_MOTION_DDOT":0},{"OBJECT_NAME":"STARLINK-35386","OBJECT_ID":"2025-223J","EPOCH":"2025-12-06T08:55:29.187840","MEAN_MOTION":15.3022044,"ECCENTRICITY":0.00013217,"INCLINATION":53.1601,"RA_OF_ASC_NODE":7.9536,"ARG_OF_PERICENTER":77.8743,"MEAN_ANOMALY":282.2406,"EPHEMERIS_TYPE":0,"CLASSIFICATION_TYPE":"U","NORAD_CAT_ID":65862,"ELEMENT_SET_NO":999,"REV_AT_EPOCH":991,"BSTAR":0.0011489749,"MEAN_MOTION_DOT":0.00033847,"MEAN_MOTION_DDOT":0},{"OBJECT_NAME":"STARLINK-35469","OBJECT_ID":"2025-223K","EPOCH":"2025-12-06T11:55:58.918944","MEAN_MOTION":15.30245661,"ECCENTRICITY":7.097e-5,"INCLINATION":53.1624,"RA_OF_ASC_NODE":7.3159,"ARG_OF_PERICENTER":245.4058,"MEAN_ANOMALY":114.6869,"EPHEMERIS_TYPE":0,"CLASSIFICATION_TYPE":"U","NORAD_CAT_ID":65863,"ELEMENT_SET_NO":999,"REV_AT_EPOCH":993,"BSTAR":0.0016845905,"MEAN_MOTION_DOT":0.0004994,"MEAN_MOTION_DDOT":0},{"OBJECT_NAME":"STARLINK-35471","OBJECT_ID":"2025-223L","EPOCH":"2025-12-06T16:00:03.000096","MEAN_MOTION":15.30180385,"ECCENTRICITY":0.00017399,"INCLINATION":53.1585,"RA_OF_ASC_NODE":6.0571,"ARG_OF_PERICENTER":92.9928,"MEAN_ANOMALY":359.7431,"EPHEMERIS_TYPE":0,"CLASSIFICATION_TYPE":"U","NORAD_CAT_ID":65864,"ELEMENT_SET_NO":999,"REV_AT_EPOCH":585,"BSTAR":0.00050678201,"MEAN_MOTION_DOT":0.00014671,"MEAN_MOTION_DDOT":0},{"OBJECT_NAME":"STARLINK-35475","OBJECT_ID":"2025-223M","EPOCH":"2025-12-06T16:00:03.000096","MEAN_MOTION":15.30178879,"ECCENTRICITY":0.00013354,"INCLINATION":53.1591,"RA_OF_ASC_NODE":5.9418,"ARG_OF_PERICENTER":82.0151,"MEAN_ANOMALY":68.8861,"EPHEMERIS_TYPE":0,"CLASSIFICATION_TYPE":"U","NORAD_CAT_ID":65865,"ELEMENT_SET_NO":999,"REV_AT_EPOCH":590,"BSTAR":0.00052465647,"MEAN_MOTION_DOT":0.00015201,"MEAN_MOTION_DDOT":0},{"OBJECT_NAME":"STARLINK-35312","OBJECT_ID":"2025-223N","EPOCH":"2025-12-06T05:36:44.483616","MEAN_MOTION":15.30217662,"ECCENTRICITY":0.0001538,"INCLINATION":53.1597,"RA_OF_ASC_NODE":8.5093,"ARG_OF_PERICENTER":67.5586,"MEAN_ANOMALY":292.5578,"EPHEMERIS_TYPE":0,"CLASSIFICATION_TYPE":"U","NORAD_CAT_ID":65866,"ELEMENT_SET_NO":999,"REV_AT_EPOCH":989,"BSTAR":0.0014637588,"MEAN_MOTION_DOT":0.0004327,"MEAN_MOTION_DDOT":0},{"OBJECT_NAME":"STARLINK-35456","OBJECT_ID":"2025-223P","EPOCH":"2025-12-06T11:05:50.505504","MEAN_MOTION":15.302943,"ECCENTRICITY":0.0002746,"INCLINATION":53.1615,"RA_OF_ASC_NODE":7.0975,"ARG_OF_PERICENTER":76.0642,"MEAN_ANOMALY":284.0664,"EPHEMERIS_TYPE":0,"CLASSIFICATION_TYPE":"U","NORAD_CAT_ID":65867,"ELEMENT_SET_NO":999,"REV_AT_EPOCH":993,"BSTAR":0.0025177562,"MEAN_MOTION_DOT":0.0007519,"MEAN_MOTION_DDOT":0},{"OBJECT_NAME":"STARLINK-35450","OBJECT_ID":"2025-223Q","EPOCH":"2025-12-06T16:00:03.000096","MEAN_MOTION":15.30170922,"ECCENTRICITY":0.00016465,"INCLINATION":53.1606,"RA_OF_ASC_NODE":6.4249,"ARG_OF_PERICENTER":78.0603,"MEAN_ANOMALY":188.5654,"EPHEMERIS_TYPE":0,"CLASSIFICATION_TYPE":"U","NORAD_CAT_ID":65868,"ELEMENT_SET_NO":999,"REV_AT_EPOCH":591,"BSTAR":0.00047615653,"MEAN_MOTION_DOT":0.00013757,"MEAN_MOTION_DDOT":0},{"OBJECT_NAME":"STARLINK-35441","OBJECT_ID":"2025-223R","EPOCH":"2025-12-06T16:00:03.000096","MEAN_MOTION":15.30179375,"ECCENTRICITY":0.00011522,"INCLINATION":53.1599,"RA_OF_ASC_NODE":6.4932,"ARG_OF_PERICENTER":87.6208,"MEAN_ANOMALY":144.1006,"EPHEMERIS_TYPE":0,"CLASSIFICATION_TYPE":"U","NORAD_CAT_ID":65869,"ELEMENT_SET_NO":999,"REV_AT_EPOCH":591,"BSTAR":0.00037850322,"MEAN_MOTION_DOT":0.0001086,"MEAN_MOTION_DDOT":0},{"OBJECT_NAME":"STARLINK-35433","OBJECT_ID":"2025-223S","EPOCH":"2025-12-04T07:29:39.994080","MEAN_MOTION":15.3969245,"ECCENTRICITY":0.0001094,"INCLINATION":53.1618,"RA_OF_ASC_NODE":17.1416,"ARG_OF_PERICENTER":100.7379,"MEAN_ANOMALY":259.375,"EPHEMERIS_TYPE":0,"CLASSIFICATION_TYPE":"U","NORAD_CAT_ID":65870,"ELEMENT_SET_NO":999,"REV_AT_EPOCH":961,"BSTAR":0.0036301,"MEAN_MOTION_DOT":0.00148007,"MEAN_MOTION_DDOT":0},{"OBJECT_NAME":"STARLINK-35465","OBJECT_ID":"2025-223T","EPOCH":"2025-12-06T16:00:03.000096","MEAN_MOTION":15.30212176,"ECCENTRICITY":0.00010818,"INCLINATION":53.1604,"RA_OF_ASC_NODE":6.2411,"ARG_OF_PERICENTER":84.7965,"MEAN_ANOMALY":274.7768,"EPHEMERIS_TYPE":0,"CLASSIFICATION_TYPE":"U","NORAD_CAT_ID":65871,"ELEMENT_SET_NO":999,"REV_AT_EPOCH":591,"BSTAR":0.00048899613,"MEAN_MOTION_DOT":0.00014157,"MEAN_MOTION_DDOT":0},{"OBJECT_NAME":"STARLINK-34108","OBJECT_ID":"2025-223U","EPOCH":"2025-12-06T16:00:03.000096","MEAN_MOTION":15.30179098,"ECCENTRICITY":0.00015826,"INCLINATION":53.1588,"RA_OF_ASC_NODE":6.0899,"ARG_OF_PERICENTER":85.368,"MEAN_ANOMALY":349.9253,"EPHEMERIS_TYPE":0,"CLASSIFICATION_TYPE":"U","NORAD_CAT_ID":65872,"ELEMENT_SET_NO":999,"REV_AT_EPOCH":580,"BSTAR":0.00047021535,"MEAN_MOTION_DOT":0.00013584,"MEAN_MOTION_DDOT":0},{"OBJECT_NAME":"STARLINK-35423","OBJECT_ID":"2025-223V","EPOCH":"2025-12-06T16:00:03.000096","MEAN_MOTION":15.30169881,"ECCENTRICITY":0.00012432,"INCLINATION":53.1587,"RA_OF_ASC_NODE":5.9752,"ARG_OF_PERICENTER":76.6283,"MEAN_ANOMALY":56.841,"EPHEMERIS_TYPE":0,"CLASSIFICATION_TYPE":"U","NORAD_CAT_ID":65873,"ELEMENT_SET_NO":999,"REV_AT_EPOCH":590,"BSTAR":0.00062254245,"MEAN_MOTION_DOT":0.00018107,"MEAN_MOTION_DDOT":0},{"OBJECT_NAME":"STARLINK-35425","OBJECT_ID":"2025-223W","EPOCH":"2025-12-06T11:36:14.223744","MEAN_MOTION":15.30256297,"ECCENTRICITY":3.081e-5,"INCLINATION":53.1621,"RA_OF_ASC_NODE":7.2276,"ARG_OF_PERICENTER":85.856,"MEAN_ANOMALY":274.2476,"EPHEMERIS_TYPE":0,"CLASSIFICATION_TYPE":"U","NORAD_CAT_ID":65874,"ELEMENT_SET_NO":999,"REV_AT_EPOCH":993,"BSTAR":0.0021549524,"MEAN_MOTION_DOT":0.00064129,"MEAN_MOTION_DDOT":0},{"OBJECT_NAME":"STARLINK-34688","OBJECT_ID":"2025-223X","EPOCH":"2025-12-06T09:03:04.685184","MEAN_MOTION":15.302542,"ECCENTRICITY":0.0001198,"INCLINATION":53.1599,"RA_OF_ASC_NODE":7.984,"ARG_OF_PERICENTER":91.0768,"MEAN_ANOMALY":269.037,"EPHEMERIS_TYPE":0,"CLASSIFICATION_TYPE":"U","NORAD_CAT_ID":65875,"ELEMENT_SET_NO":999,"REV_AT_EPOCH":991,"BSTAR":0.0018573304,"MEAN_MOTION_DOT":0.00055151,"MEAN_MOTION_DDOT":0},{"OBJECT_NAME":"STARLINK-34438","OBJECT_ID":"2025-223Y","EPOCH":"2025-12-06T11:48:23.628096","MEAN_MOTION":15.30220384,"ECCENTRICITY":0.00012327,"INCLINATION":53.1596,"RA_OF_ASC_NODE":7.2769,"ARG_OF_PERICENTER":85.421,"MEAN_ANOMALY":274.6932,"EPHEMERIS_TYPE":0,"CLASSIFICATION_TYPE":"U","NORAD_CAT_ID":65876,"ELEMENT_SET_NO":999,"REV_AT_EPOCH":993,"BSTAR":0.0014677759,"MEAN_MOTION_DOT":0.00043394,"MEAN_MOTION_DDOT":0},{"OBJECT_NAME":"STARLINK-35462","OBJECT_ID":"2025-223Z","EPOCH":"2025-12-06T10:46:05.621088","MEAN_MOTION":15.30221617,"ECCENTRICITY":0.00013457,"INCLINATION":53.1588,"RA_OF_ASC_NODE":7.0047,"ARG_OF_PERICENTER":95.7468,"MEAN_ANOMALY":264.3686,"EPHEMERIS_TYPE":0,"CLASSIFICATION_TYPE":"U","NORAD_CAT_ID":65877,"ELEMENT_SET_NO":999,"REV_AT_EPOCH":993,"BSTAR":0.0017602859,"MEAN_MOTION_DOT":0.00052177,"MEAN_MOTION_DDOT":0},{"OBJECT_NAME":"STARLINK-35453","OBJECT_ID":"2025-223AA","EPOCH":"2025-12-06T11:57:30.993696","MEAN_MOTION":15.30210222,"ECCENTRICITY":0.0001361,"INCLINATION":53.16,"RA_OF_ASC_NODE":7.317,"ARG_OF_PERICENTER":109.9458,"MEAN_ANOMALY":250.169,"EPHEMERIS_TYPE":0,"CLASSIFICATION_TYPE":"U","NORAD_CAT_ID":65878,"ELEMENT_SET_NO":999,"REV_AT_EPOCH":993,"BSTAR":0.002109848,"MEAN_MOTION_DOT":0.00062677,"MEAN_MOTION_DDOT":0},{"OBJECT_NAME":"STARLINK-35418","OBJECT_ID":"2025-223AB","EPOCH":"2025-12-06T04:19:24.949632","MEAN_MOTION":15.30227802,"ECCENTRICITY":0.00013479,"INCLINATION":53.1595,"RA_OF_ASC_NODE":8.8837,"ARG_OF_PERICENTER":92.6997,"MEAN_ANOMALY":267.4158,"EPHEMERIS_TYPE":0,"CLASSIFICATION_TYPE":"U","NORAD_CAT_ID":65879,"ELEMENT_SET_NO":999,"REV_AT_EPOCH":988,"BSTAR":0.0013637074,"MEAN_MOTION_DOT":0.00040284,"MEAN_MOTION_DDOT":0}]
